{
  "type": "FeatureCollection",
  "features": [
    {
      "type": "Feature",
      "properties": {
        "norad_id": 33376,
        "name": "GALAXY 19 (G-19)",
        "group": "intelsat",
        "lat": -0.01632532980066975,
        "lon": -51.26210471683533,
        "alt_km": 35778.448053440196,
        "timestamp": "2025-12-10T21:43:21.754236+00:00",
        "meta_object_name": "GALAXY 19 (G-19)",
        "meta_object_id": "2008-045A",
        "meta_epoch": "2025-12-10T07:35:38.511744",
        "meta_mean_motion": 1.00271524,
        "meta_eccentricity": 0.00026896,
        "meta_inclination": 0.016,
        "meta_ra_of_asc_node": 335.7493,
        "meta_arg_of_pericenter": 285.7488,
        "meta_mean_anomaly": 194.7107,
        "meta_ephemeris_type": 0,
        "meta_classification_type": "U",
        "meta_norad_cat_id": 33376,
        "meta_element_set_no": 999,
        "meta_rev_at_epoch": 6301,
        "meta_bstar": 0,
        "meta_mean_motion_dot": -1.36e-06,
        "meta_mean_motion_ddot": 0,
        "tle_line1": "1 33376U 08045A   25344.31641796 -.00000136  00000+0  00000+0 0  9993",
        "tle_line2": "2 33376   0.0160 335.7493 0002689 285.7488 194.7107  1.00271524 63013"
      },
      "geometry": {
        "type": "Point",
        "coordinates": [
          -51.26210471683533,
          -0.01632532980066975
        ]
      }
    },
    {
      "type": "Feature",
      "properties": {
        "norad_id": 35493,
        "name": "FM-5",
        "group": "intelsat",
        "lat": 0.005080698160885712,
        "lon": -40.427749120954864,
        "alt_km": 35788.45046878096,
        "timestamp": "2025-12-10T21:43:21.754249+00:00",
        "meta_object_name": "FM-5",
        "meta_object_id": "2009-034A",
        "meta_epoch": "2025-12-10T07:19:38.654400",
        "meta_mean_motion": 1.00270816,
        "meta_eccentricity": 5.981e-05,
        "meta_inclination": 0.0181,
        "meta_ra_of_asc_node": 290.4864,
        "meta_arg_of_pericenter": 244.036,
        "meta_mean_anomaly": 288.5308,
        "meta_ephemeris_type": 0,
        "meta_classification_type": "U",
        "meta_norad_cat_id": 35493,
        "meta_element_set_no": 999,
        "meta_rev_at_epoch": 4475,
        "meta_bstar": 0,
        "meta_mean_motion_dot": -1.97e-06,
        "meta_mean_motion_ddot": 0,
        "tle_line1": "1 35493U 09034A   25344.30530850 -.00000197  00000+0  00000+0 0  9998",
        "tle_line2": "2 35493   0.0181 290.4864 0000598 244.0360 288.5308  1.00270816 44759"
      },
      "geometry": {
        "type": "Point",
        "coordinates": [
          -40.427749120954864,
          0.005080698160885712
        ]
      }
    },
    {
      "type": "Feature",
      "properties": {
        "norad_id": 36097,
        "name": "INTELSAT 14 (IS-14)",
        "group": "intelsat",
        "lat": 0.0035896958210966095,
        "lon": 0.7408121779275034,
        "alt_km": 35787.289368401274,
        "timestamp": "2025-12-10T21:43:21.754261+00:00",
        "meta_object_name": "INTELSAT 14 (IS-14)",
        "meta_object_id": "2009-064A",
        "meta_epoch": "2025-12-10T03:03:23.389920",
        "meta_mean_motion": 1.00270224,
        "meta_eccentricity": 0.00026475,
        "meta_inclination": 0.009,
        "meta_ra_of_asc_node": 2.4747,
        "meta_arg_of_pericenter": 264.7891,
        "meta_mean_anomaly": 172.6949,
        "meta_ephemeris_type": 0,
        "meta_classification_type": "U",
        "meta_norad_cat_id": 36097,
        "meta_element_set_no": 999,
        "meta_rev_at_epoch": 5870,
        "meta_bstar": 0,
        "meta_mean_motion_dot": -2.7e-06,
        "meta_mean_motion_ddot": 0,
        "tle_line1": "1 36097U 09064A   25344.12735405 -.00000270  00000+0  00000+0 0  9997",
        "tle_line2": "2 36097   0.0090   2.4747 0002647 264.7891 172.6949  1.00270224 58702"
      },
      "geometry": {
        "type": "Point",
        "coordinates": [
          0.7408121779275034,
          0.0035896958210966095
        ]
      }
    },
    {
      "type": "Feature",
      "properties": {
        "norad_id": 36106,
        "name": "INTELSAT 15 (IS-15)",
        "group": "intelsat",
        "lat": -0.003590962168988866,
        "lon": 130.83688489670078,
        "alt_km": 35793.79445088082,
        "timestamp": "2025-12-10T21:43:21.754272+00:00",
        "meta_object_name": "INTELSAT 15 (IS-15)",
        "meta_object_id": "2009-067A",
        "meta_epoch": "2025-12-10T14:22:03.878400",
        "meta_mean_motion": 1.00270741,
        "meta_eccentricity": 0.00024271,
        "meta_inclination": 0.0254,
        "meta_ra_of_asc_node": 288.1455,
        "meta_arg_of_pericenter": 338.8369,
        "meta_mean_anomaly": 113.252,
        "meta_ephemeris_type": 0,
        "meta_classification_type": "U",
        "meta_norad_cat_id": 36106,
        "meta_element_set_no": 999,
        "meta_rev_at_epoch": 3933,
        "meta_bstar": 0,
        "meta_mean_motion_dot": -1.81e-06,
        "meta_mean_motion_ddot": 0,
        "tle_line1": "1 36106U 09067A   25344.59865600 -.00000181  00000+0  00000+0 0  9994",
        "tle_line2": "2 36106   0.0254 288.1455 0002427 338.8369 113.2520  1.00270741 39331"
      },
      "geometry": {
        "type": "Point",
        "coordinates": [
          130.83688489670078,
          -0.003590962168988866
        ]
      }
    },
    {
      "type": "Feature",
      "properties": {
        "norad_id": 36131,
        "name": "DIRECTV 12",
        "group": "intelsat",
        "lat": -0.01096152543237097,
        "lon": -57.01141588745158,
        "alt_km": 35784.672612428934,
        "timestamp": "2025-12-10T21:43:21.754284+00:00",
        "meta_object_name": "DIRECTV 12",
        "meta_object_id": "2009-075A",
        "meta_epoch": "2025-12-10T08:12:19.207872",
        "meta_mean_motion": 1.00271691,
        "meta_eccentricity": 4.696e-05,
        "meta_inclination": 0.0407,
        "meta_ra_of_asc_node": 142.1952,
        "meta_arg_of_pericenter": 203.616,
        "meta_mean_anomaly": 113.8688,
        "meta_ephemeris_type": 0,
        "meta_classification_type": "U",
        "meta_norad_cat_id": 36131,
        "meta_element_set_no": 999,
        "meta_rev_at_epoch": 4466,
        "meta_bstar": 0,
        "meta_mean_motion_dot": -1e-06,
        "meta_mean_motion_ddot": 0,
        "tle_line1": "1 36131U 09075A   25344.34188898 -.00000100  00000+0  00000+0 0  9992",
        "tle_line2": "2 36131   0.0407 142.1952 0000469 203.6160 113.8688  1.00271691 44660"
      },
      "geometry": {
        "type": "Point",
        "coordinates": [
          -57.01141588745158,
          -0.01096152543237097
        ]
      }
    },
    {
      "type": "Feature",
      "properties": {
        "norad_id": 36397,
        "name": "INTELSAT 16 (IS-16)",
        "group": "intelsat",
        "lat": 0.0027426114639407914,
        "lon": -30.47368304985358,
        "alt_km": 35782.69101349713,
        "timestamp": "2025-12-10T21:43:21.754296+00:00",
        "meta_object_name": "INTELSAT 16 (IS-16)",
        "meta_object_id": "2010-006A",
        "meta_epoch": "2025-12-10T04:15:38.659392",
        "meta_mean_motion": 1.00270158,
        "meta_eccentricity": 0.00022535,
        "meta_inclination": 0.013,
        "meta_ra_of_asc_node": 313.914,
        "meta_arg_of_pericenter": 309.8505,
        "meta_mean_anomaly": 163.0994,
        "meta_ephemeris_type": 0,
        "meta_classification_type": "U",
        "meta_norad_cat_id": 36397,
        "meta_element_set_no": 999,
        "meta_rev_at_epoch": 5775,
        "meta_bstar": 0,
        "meta_mean_motion_dot": -2.41e-06,
        "meta_mean_motion_ddot": 0,
        "tle_line1": "1 36397U 10006A   25344.17753078 -.00000241  00000+0  00000+0 0  9997",
        "tle_line2": "2 36397   0.0130 313.9140 0002253 309.8505 163.0994  1.00270158 57757"
      },
      "geometry": {
        "type": "Point",
        "coordinates": [
          -30.47368304985358,
          0.0027426114639407914
        ]
      }
    },
    {
      "type": "Feature",
      "properties": {
        "norad_id": 37185,
        "name": "XM-5",
        "group": "intelsat",
        "lat": 0.005489231959859993,
        "lon": -69.48191579087235,
        "alt_km": 35791.63190536857,
        "timestamp": "2025-12-10T21:43:21.754308+00:00",
        "meta_object_name": "XM-5",
        "meta_object_id": "2010-053A",
        "meta_epoch": "2025-12-10T13:37:54.526944",
        "meta_mean_motion": 1.002694,
        "meta_eccentricity": 0.00014943,
        "meta_inclination": 0.0608,
        "meta_ra_of_asc_node": 272.7787,
        "meta_arg_of_pericenter": 236.7072,
        "meta_mean_anomaly": 19.3322,
        "meta_ephemeris_type": 0,
        "meta_classification_type": "U",
        "meta_norad_cat_id": 37185,
        "meta_element_set_no": 999,
        "meta_rev_at_epoch": 5559,
        "meta_bstar": 0,
        "meta_mean_motion_dot": -1.9e-07,
        "meta_mean_motion_ddot": 0,
        "tle_line1": "1 37185U 10053A   25344.56799221 -.00000019  00000+0  00000+0 0  9991",
        "tle_line2": "2 37185   0.0608 272.7787 0001494 236.7072  19.3322  1.00269400 55591"
      },
      "geometry": {
        "type": "Point",
        "coordinates": [
          -69.48191579087235,
          0.005489231959859993
        ]
      }
    }
  ]
}